$$SOE
2459580.500000000, A.D. 2022-Jan-01 00:00:00.0000, -3.825011846702994E+07, 2.363929875514799E+08, 3.497837420680222E+07,
2459587.500000000, A.D. 2022-Jan-08 00:00:00.0000, -5.259538780904565E+07, 2.338158057729997E+08, 4.012059978771345E+07,
2459594.500000000, A.D. 2022-Jan-15 00:00:00.0000, -6.676291357056643E+07, 2.304478061302751E+08, 4.512716691678435E+07,
2459601.500000000, A.D. 2022-Jan-22 00:00:00.0000, -8.070792799039482E+07, 2.263112039460996E+08, 4.998326754925674E+07,
2459608.500000000, A.D. 2022-Jan-29 00:00:00.0000, -9.438813036088359E+07, 2.214315668465549E+08, 5.467531040125139E+07,
2459615.500000000, A.D. 2022-Feb-05 00:00:00.0000, -1.077639449519909E+08, 2.158374163840832E+08, 5.919098188529067E+07,
2459622.500000000, A.D. 2022-Feb-12 00:00:00.0000, -1.207987172522156E+08, 2.095598124582781E+08, 6.351928306971075E+07,
2459629.500000000, A.D. 2022-Feb-19 00:00:00.0000, -1.334588507004829E+08, 2.026319339860789E+08, 6.765054430254850E+07,
2459636.500000000, A.D. 2022-Feb-26 00:00:00.0000, -1.457138878737524E+08, 1.950886650866650E+08, 7.157641944260448E+07,
2459643.500000000, A.D. 2022-Mar-05 00:00:00.0000, -1.575365401149983E+08, 1.869661947779943E+08, 7.528986192850214E+07,
2459650.500000000, A.D. 2022-Mar-12 00:00:00.0000, -1.689026706236979E+08, 1.783016372212113E+08, 7.878508523064420E+07,
2459657.500000000, A.D. 2022-Mar-19 00:00:00.0000, -1.797912368876662E+08, 1.691326780641451E+08, 8.205751038155240E+07,
2459664.500000000, A.D. 2022-Mar-26 00:00:00.0000, -1.901841987354081E+08, 1.594972508455496E+08, 8.510370328075904E+07,
2459671.500000000, A.D. 2022-Apr-02 00:00:00.0000, -2.000663982891552E+08, 1.494332459170061E+08, 8.792130435474145E+07,
2459678.500000000, A.D. 2022-Apr-09 00:00:00.0000, -2.094254176915473E+08, 1.389782531002035E+08, 9.050895295044200E+07,
2459685.500000000, A.D. 2022-Apr-16 00:00:00.0000, -2.182514200008419E+08, 1.281693388336647E+08, 9.286620864230630E+07,
2459692.500000000, A.D. 2022-Apr-23 00:00:00.0000, -2.265369797531275E+08, 1.170428580820037E+08, 9.499347154236813E+07,
2459699.500000000, A.D. 2022-Apr-30 00:00:00.0000, -2.342769096914034E+08, 1.056342972475434E+08, 9.689190320298125E+07,
2459706.500000000, A.D. 2022-May-07 00:00:00.0000, -2.414680845728532E+08, 9.397814408413483E+07, 9.856334898314057E+07,
2459713.500000000, A.D. 2022-May-14 00:00:00.0000, -2.481092639760977E+08, 8.210778525914378E+07, 1.000102630248387E+08,
2459720.500000000, A.D. 2022-May-21 00:00:00.0000, -2.542009188519311E+08, 7.005542971631047E+07, 1.012356368708652E+08,
2459727.500000000, A.D. 2022-May-28 00:00:00.0000, -2.597450644419843E+08, 5.785205420935914E+07, 1.022429322623561E+08,
2459734.500000000, A.D. 2022-Jun-04 00:00:00.0000, -2.647451009009109E+08, 4.552736803907758E+07, 1.030360184385402E+08,
2459741.500000000, A.D. 2022-Jun-11 00:00:00.0000, -2.692056626299573E+08, 3.310979442249037E+07, 1.036191141313556E+08,
2459748.500000000, A.D. 2022-Jun-18 00:00:00.0000, -2.731324770457429E+08, 2.062646607237854E+07, 1.039967343243960E+08,
2459755.500000000, A.D. 2022-Jun-25 00:00:00.0000, -2.765322331893720E+08, 8.103232695208639E+06, 1.041736417358073E+08,
2459762.500000000, A.D. 2022-Jul-02 00:00:00.0000, -2.794124602066910E+08, -4.435321719678223E+06, 1.041548028890065E+08,
2459769.500000000, A.D. 2022-Jul-09 00:00:00.0000, -2.817814152579150E+08, -1.696585349736734E+07, 1.039453485684894E+08,
2459776.500000000, A.D. 2022-Jul-16 00:00:00.0000, -2.836479806912069E+08, -2.946622632630704E+07, 1.035505385274592E+08,
2459783.500000000, A.D. 2022-Jul-23 00:00:00.0000, -2.850215723320436E+08, -4.191547212993357E+07, 1.029757303989331E+08,
2459790.500000000, A.D. 2022-Jul-30 00:00:00.0000, -2.859120583718000E+08, -5.429375037415463E+07, 1.022263522581079E+08,
2459797.500000000, A.D. 2022-Aug-06 00:00:00.0000, -2.863296847636360E+08, -6.658230623918664E+07, 1.013078782819927E+08,
2459804.500000000, A.D. 2022-Aug-13 00:00:00.0000, -2.862850074087062E+08, -7.876342581222734E+07, 1.002258075240105E+08,
2459811.500000000, A.D. 2022-Aug-20 00:00:00.0000, -2.857888321403431E+08, -9.082038957610355E+07, 9.898564562672740E+07,
2459818.500000000, A.D. 2022-Aug-27 00:00:00.0000, -2.848521618808551E+08, -1.027374255667263E+08, 9.759288914293602E+07,
2459825.500000000, A.D. 2022-Sep-03 00:00:00.0000, -2.834861501781154E+08, -1.144996628374092E+08, 9.605301218521242E+07,
2459832.500000000, A.D. 2022-Sep-10 00:00:00.0000, -2.817020605013766E+08, -1.260930856305425E+08, 9.437145516273032E+07,
2459839.500000000, A.D. 2022-Sep-17 00:00:00.0000, -2.795112307575514E+08, -1.375044885969959E+08, 9.255361538230744E+07,
2459846.500000000, A.D. 2022-Sep-24 00:00:00.0000, -2.769250424857168E+08, -1.487214333798258E+08, 9.060483930062065E+07,
2459853.500000000, A.D. 2022-Oct-01 00:00:00.0000, -2.739548940390156E+08, -1.597322067876090E+08, 8.853041621766117E+07,
2459860.500000000, A.D. 2022-Oct-08 00:00:00.0000, -2.706121769280455E+08, -1.705257801845076E+08, 8.633557324724306E+07,
2459867.500000000, A.D. 2022-Oct-15 00:00:00.0000, -2.669082558705736E+08, -1.810917690008002E+08, 8.402547159359908E+07,
2459874.500000000, A.D. 2022-Oct-22 00:00:00.0000, -2.628544543727933E+08, -1.914203941125216E+08, 8.160520405583149E+07,
2459881.500000000, A.D. 2022-Oct-29 00:00:00.0000, -2.584620430186819E+08, -2.015024477176882E+08, 7.907979319178033E+07,
2459888.500000000, A.D. 2022-Nov-05 00:00:00.0000, -2.537422280686623E+08, -2.113292609751764E+08, 7.645419005692983E+07,
2459895.500000000, A.D. 2022-Nov-12 00:00:00.0000, -2.487061420537145E+08, -2.208926721274111E+08, 7.373327369708076E+07,
2459902.500000000, A.D. 2022-Nov-19 00:00:00.0000, -2.433648368304331E+08, -2.301849960410427E+08, 7.092185129148415E+07,
2459909.500000000, A.D. 2022-Nov-26 00:00:00.0000, -2.377292786124599E+08, -2.391989955375879E+08, 6.802465881369823E+07,
2459916.500000000, A.D. 2022-Dec-03 00:00:00.0000, -2.318103446212528E+08, -2.479278544902944E+08, 6.504636212952853E+07,
2459923.500000000, A.D. 2022-Dec-10 00:00:00.0000, -2.256188211427065E+08, -2.563651526201887E+08, 6.199155847136261E+07,
2459930.500000000, A.D. 2022-Dec-17 00:00:00.0000, -2.191654028118248E+08, -2.645048419585148E+08, 5.886477823051973E+07,
2459937.500000000, A.D. 2022-Dec-24 00:00:00.0000, -2.124606928755834E+08, -2.723412249801459E+08, 5.567048700289340E+07,
2459944.500000000, A.D. 2022-Dec-31 00:00:00.0000, -2.055152039494148E+08, -2.798689342391073E+08, 5.241308782041658E+07,
2459951.500000000, A.D. 2023-Jan-07 00:00:00.0000, -1.983393590315015E+08, -2.870829124829693E+08, 4.909692359808490E+07,
2459958.500000000, A.D. 2023-Jan-14 00:00:00.0000, -1.909434946410477E+08, -2.939783926888625E+08, 4.572627998485339E+07,
2459965.500000000, A.D. 2023-Jan-21 00:00:00.0000, -1.833378666355600E+08, -3.005508811361017E+08, 4.230538839014407E+07,
2459972.500000000, A.D. 2023-Jan-28 00:00:00.0000, -1.755326549620720E+08, -3.067961436583058E+08, 3.883842881022492E+07,
2459979.500000000, A.D. 2023-Feb-04 00:00:00.0000, -1.675379674853171E+08, -3.127101919963877E+08, 3.532953270132911E+07,
2459986.500000000, A.D. 2023-Feb-11 00:00:00.0000, -1.593638446303464E+08, -3.182892703950500E+08, 3.178278603097647E+07,
2459993.500000000, A.D. 2023-Feb-18 00:00:00.0000, -1.510202648513839E+08, -3.235298432165096E+08, 2.820223243069677E+07,
2460000.500000000, A.D. 2023-Feb-25 00:00:00.0000, -1.425171506179645E+08, -3.284285836870010E+08, 2.459187639954707E+07,
2460007.500000000, A.D. 2023-Mar-04 00:00:00.0000, -1.338643747753480E+08, -3.329823637161744E+08, 2.095568653953926E+07,
2460014.500000000, A.D. 2023-Mar-11 00:00:00.0000, -1.250717672162708E+08, -3.371882447531146E+08, 1.729759881158170E+07,
2460021.500000000, A.D. 2023-Mar-18 00:00:00.0000, -1.161491217887733E+08, -3.410434696960475E+08, 1.362151979635757E+07,
2460028.500000000, A.D. 2023-Mar-25 00:00:00.0000, -1.071062032128442E+08, -3.445454558729988E+08, 9.931329931418985E+06,
2460035.500000000, A.D. 2023-Apr-01 00:00:00.0000, -9.795275356057858E+07, -3.476917886731055E+08, 6.230886712325245E+06,
2460042.500000000, A.D. 2023-Apr-08 00:00:00.0000, -8.869849889733155E+07, -3.504802145796876E+08, 2.524028009775668E+06,
2460049.500000000, A.D. 2023-Apr-15 00:00:00.0000, -7.935315840475674E+07, -3.529086346897937E+08, -1.185424377308324E+06,
2460056.500000000, A.D. 2023-Apr-22 00:00:00.0000, -6.992645416154684E+07, -3.549751017557058E+08, -4.893661351587325E+06,
2460063.500000000, A.D. 2023-Apr-29 00:00:00.0000, -6.042811883486477E+07, -3.566778184861313E+08, -8.596883399687842E+06,
2460070.500000000, A.D. 2023-May-06 00:00:00.0000, -5.086790303380881E+07, -3.580151353201660E+08, -1.229129742289449E+07,
2460077.500000000, A.D. 2023-May-13 00:00:00.0000, -4.125558329409944E+07, -3.589855485640234E+08, -1.597311350244653E+07,
2460084.500000000, A.D. 2023-May-20 00:00:00.0000, -3.160097045317062E+07, -3.595876993812550E+08, -1.963854166413593E+07,
2460091.500000000, A.D. 2023-May-27 00:00:00.0000, -2.191391821610384E+07, -3.598203736686552E+08, -2.328378866573435E+07,
2460098.500000000, A.D. 2023-Jun-03 00:00:00.0000, -1.220433184835996E+07, -3.596825027982852E+08, -2.690505481418793E+07,
2460105.500000000, A.D. 2023-Jun-10 00:00:00.0000, -2.482176964750418E+06, -3.591731652510388E+08, -3.049853082015419E+07,
2460112.500000000, A.D. 2023-Jun-17 00:00:00.0000, 7.242511680286652E+06, -3.582915892187154E+08, -3.406039470765980E+07,
2460119.500000000, A.D. 2023-Jun-24 00:00:00.0000, 1.695962172631589E+07, -3.570371561391399E+08, -3.758680880864912E+07,
2460126.500000000, A.D. 2023-Jul-01 00:00:00.0000, 2.665895532381824E+07, -3.554094043589186E+08, -4.107391680309378E+07,
2460133.500000000, A.D. 2023-Jul-08 00:00:00.0000, 3.633022016852815E+07, -3.534080321271012E+08, -4.451784058924793E+07,
2460140.500000000, A.D. 2023-Jul-15 00:00:00.0000, 4.596301818721917E+07, -3.510329027772360E+08, -4.791467710384414E+07,
2460147.500000000, A.D. 2023-Jul-22 00:00:00.0000, 5.554683541084975E+07, -3.482840531647765E+08, -5.126049550633033E+07,
$$EOE